{
  "type": "FeatureCollection",
  "features": [
    {
      "type": "Feature",
      "properties": {
        "norad_id": 36744,
        "name": "COMS 1",
        "group": "weather",
        "lat": -0.03448701328006293,
        "lon": 77.12384474602383,
        "alt_km": 35788.639082865724,
        "timestamp": "2025-12-20T14:38:01.600433+00:00",
        "meta_object_name": "COMS 1",
        "meta_object_id": "2010-032A",
        "meta_epoch": "2025-12-19T21:07:51.684384",
        "meta_mean_motion": 1.00272527,
        "meta_eccentricity": 6.76e-05,
        "meta_inclination": 4.3565,
        "meta_ra_of_asc_node": 77.9191,
        "meta_arg_of_pericenter": 201.7497,
        "meta_mean_anomaly": 254.194,
        "meta_ephemeris_type": 0,
        "meta_classification_type": "U",
        "meta_norad_cat_id": 36744,
        "meta_element_set_no": 999,
        "meta_rev_at_epoch": 4929,
        "meta_bstar": 0,
        "meta_mean_motion_dot": -3.23e-06,
        "meta_mean_motion_ddot": 0,
        "tle_line1": "1 36744U 10032A   25353.88045931 -.00000323  00000+0  00000+0 0  9993",
        "tle_line2": "2 36744   4.3565  77.9191 0000676 201.7497 254.1940  1.00272527 49297"
      },
      "geometry": {
        "type": "Point",
        "coordinates": [
          77.12384474602383,
          -0.03448701328006293
        ]
      }
    },
    {
      "type": "Feature",
      "properties": {
        "norad_id": 37214,
        "name": "FENGYUN 3B",
        "group": "weather",
        "lat": 42.82038502284428,
        "lon": -136.92210969712565,
        "alt_km": 854.2357306725717,
        "timestamp": "2025-12-20T14:38:01.600445+00:00",
        "meta_object_name": "FENGYUN 3B",
        "meta_object_id": "2010-059A",
        "meta_epoch": "2025-12-20T07:29:39.253632",
        "meta_mean_motion": 14.14792681,
        "meta_eccentricity": 0.00216867,
        "meta_inclination": 98.9901,
        "meta_ra_of_asc_node": 34.3427,
        "meta_arg_of_pericenter": 336.2118,
        "meta_mean_anomaly": 85.8401,
        "meta_ephemeris_type": 0,
        "meta_classification_type": "U",
        "meta_norad_cat_id": 37214,
        "meta_element_set_no": 999,
        "meta_rev_at_epoch": 78213,
        "meta_bstar": 0.00014298795,
        "meta_mean_motion_dot": 2.31e-06,
        "meta_mean_motion_ddot": 0,
        "tle_line1": "1 37214U 10059A   25354.31225988  .00000231  00000+0  14299-3 0  9992",
        "tle_line2": "2 37214  98.9901  34.3427 0021686 336.2118  85.8401 14.14792681782135"
      },
      "geometry": {
        "type": "Point",
        "coordinates": [
          -136.92210969712565,
          42.82038502284428
        ]
      }
    },
    {
      "type": "Feature",
      "properties": {
        "norad_id": 37849,
        "name": "SUOMI NPP",
        "group": "weather",
        "lat": 67.56824642351272,
        "lon": 133.86036285558563,
        "alt_km": 818.6673380511666,
        "timestamp": "2025-12-20T14:38:01.600457+00:00",
        "meta_object_name": "SUOMI NPP",
        "meta_object_id": "2011-061A",
        "meta_epoch": "2025-12-17T23:31:21.474624",
        "meta_mean_motion": 14.19515682,
        "meta_eccentricity": 0.00023932,
        "meta_inclination": 98.7779,
        "meta_ra_of_asc_node": 289.2746,
        "meta_arg_of_pericenter": 111.1248,
        "meta_mean_anomaly": 249.0184,
        "meta_ephemeris_type": 0,
        "meta_classification_type": "U",
        "meta_norad_cat_id": 37849,
        "meta_element_set_no": 999,
        "meta_rev_at_epoch": 73273,
        "meta_bstar": 4.8615036e-05,
        "meta_mean_motion_dot": 5.8e-07,
        "meta_mean_motion_ddot": 0,
        "tle_line1": "1 37849U 11061A   25351.98010966  .00000058  00000+0  48615-4 0  9995",
        "tle_line2": "2 37849  98.7779 289.2746 0002393 111.1248 249.0184 14.19515682732735"
      },
      "geometry": {
        "type": "Point",
        "coordinates": [
          133.86036285558563,
          67.56824642351272
        ]
      }
    },
    {
      "type": "Feature",
      "properties": {
        "norad_id": 38552,
        "name": "METEOSAT-10 (MSG-3)",
        "group": "weather",
        "lat": -3.9447041792584825,
        "lon": -50.820736671504356,
        "alt_km": 35782.51741334434,
        "timestamp": "2025-12-20T14:38:01.600469+00:00",
        "meta_object_name": "METEOSAT-10 (MSG-3)",
        "meta_object_id": "2012-035B",
        "meta_epoch": "2025-12-19T08:07:49.924128",
        "meta_mean_motion": 1.00276524,
        "meta_eccentricity": 6.93e-05,
        "meta_inclination": 4.2433,
        "meta_ra_of_asc_node": 61.706,
        "meta_arg_of_pericenter": 270.066,
        "meta_mean_anomaly": 238.6463,
        "meta_ephemeris_type": 0,
        "meta_classification_type": "U",
        "meta_norad_cat_id": 38552,
        "meta_element_set_no": 999,
        "meta_rev_at_epoch": 4905,
        "meta_bstar": 0,
        "meta_mean_motion_dot": 1.7e-07,
        "meta_mean_motion_ddot": 0,
        "tle_line1": "1 38552U 12035B   25353.33877227  .00000017  00000+0  00000+0 0  9997",
        "tle_line2": "2 38552   4.2433  61.7060 0000693 270.0660 238.6463  1.00276524 49057"
      },
      "geometry": {
        "type": "Point",
        "coordinates": [
          -50.820736671504356,
          -3.9447041792584825
        ]
      }
    },
    {
      "type": "Feature",
      "properties": {
        "norad_id": 38771,
        "name": "METOP-B",
        "group": "weather",
        "lat": 16.117085738126715,
        "lon": 41.9050392558173,
        "alt_km": 821.995211337633,
        "timestamp": "2025-12-20T14:38:01.600481+00:00",
        "meta_object_name": "METOP-B",
        "meta_object_id": "2012-049A",
        "meta_epoch": "2025-12-20T04:25:14.705472",
        "meta_mean_motion": 14.21411033,
        "meta_eccentricity": 0.00031636,
        "meta_inclination": 98.6788,
        "meta_ra_of_asc_node": 44.0164,
        "meta_arg_of_pericenter": 128.3803,
        "meta_mean_anomaly": 231.7659,
        "meta_ephemeris_type": 0,
        "meta_classification_type": "U",
        "meta_norad_cat_id": 38771,
        "meta_element_set_no": 999,
        "meta_rev_at_epoch": 68783,
        "meta_bstar": 6.7080475e-05,
        "meta_mean_motion_dot": 1.03e-06,
        "meta_mean_motion_ddot": 0,
        "tle_line1": "1 38771U 12049A   25354.18419798  .00000103  00000+0  67080-4 0  9996",
        "tle_line2": "2 38771  98.6788  44.0164 0003163 128.3803 231.7659 14.21411033687836"
      },
      "geometry": {
        "type": "Point",
        "coordinates": [
          41.9050392558173,
          16.117085738126715
        ]
      }
    },
    {
      "type": "Feature",
      "properties": {
        "norad_id": 39216,
        "name": "INSAT-3D",
        "group": "weather",
        "lat": -0.1377075833147293,
        "lon": 78.4499570187231,
        "alt_km": 35789.765221171736,
        "timestamp": "2025-12-20T14:38:01.600493+00:00",
        "meta_object_name": "INSAT-3D",
        "meta_object_id": "2013-038B",
        "meta_epoch": "2025-12-19T22:26:21.693120",
        "meta_mean_motion": 1.00289095,
        "meta_eccentricity": 0.00019909,
        "meta_inclination": 1.4625,
        "meta_ra_of_asc_node": 84.9171,
        "meta_arg_of_pericenter": 170.3603,
        "meta_mean_anomaly": 299.5565,
        "meta_ephemeris_type": 0,
        "meta_classification_type": "U",
        "meta_norad_cat_id": 39216,
        "meta_element_set_no": 999,
        "meta_rev_at_epoch": 4528,
        "meta_bstar": 0,
        "meta_mean_motion_dot": -3.14e-06,
        "meta_mean_motion_ddot": 0,
        "tle_line1": "1 39216U 13038B   25353.93497330 -.00000314  00000+0  00000+0 0  9999",
        "tle_line2": "2 39216   1.4625  84.9171 0001990 170.3603 299.5565  1.00289095 45284"
      },
      "geometry": {
        "type": "Point",
        "coordinates": [
          78.4499570187231,
          -0.1377075833147293
        ]
      }
    },
    {
      "type": "Feature",
      "properties": {
        "norad_id": 39260,
        "name": "FENGYUN 3C",
        "group": "weather",
        "lat": 75.69505256565972,
        "lon": -172.3011177958112,
        "alt_km": 829.3729985210812,
        "timestamp": "2025-12-20T14:38:01.600525+00:00",
        "meta_object_name": "FENGYUN 3C",
        "meta_object_id": "2013-052A",
        "meta_epoch": "2025-12-20T05:40:26.599008",
        "meta_mean_motion": 14.15698468,
        "meta_eccentricity": 0.00147031,
        "meta_inclination": 98.477,
        "meta_ra_of_asc_node": 331.55,
        "meta_arg_of_pericenter": 174.1821,
        "meta_mean_anomaly": 185.9528,
        "meta_ephemeris_type": 0,
        "meta_classification_type": "U",
        "meta_norad_cat_id": 39260,
        "meta_element_set_no": 999,
        "meta_rev_at_epoch": 63324,
        "meta_bstar": 4.4179051e-05,
        "meta_mean_motion_dot": 4.6e-07,
        "meta_mean_motion_ddot": 0,
        "tle_line1": "1 39260U 13052A   25354.23641897  .00000046  00000+0  44179-4 0  9998",
        "tle_line2": "2 39260  98.4770 331.5500 0014703 174.1821 185.9528 14.15698468633241"
      },
      "geometry": {
        "type": "Point",
        "coordinates": [
          -172.3011177958112,
          75.69505256565972
        ]
      }
    }
  ]
}